SUCHAI
1 42788U 17036Z   18327.88409921 +.00001283 +00000-0 +58567-4 0  9997
2 42788 097.3822 025.0753 0010547 231.0804 128.9493 15.22358255078884